ALOS (DAICHI)           
1 28931U 06002A   26113.63578078  .00000791  00000+0  14039-3 0  9994
2 28931  98.1284  69.3917 0001893 106.3471 253.7943 14.69932587 80088
H-2A R/B                
1 28932U 06002B   26113.99253192  .00005766  00000+0  28278-3 0  9998
2 28932  98.2499 264.9710 0052551  87.8455 272.8793 15.17349909101302
RESURS-DK 1             
1 29228U 06021A   26114.15690881  .00001812  00000+0  10854-3 0  9996
2 29228  69.9297 119.3901 0003123 343.6065  16.5000 15.12977179 94405
CZ-4B R/B               
1 29507U 06046C   26114.11870522  .00003356  00000+0  16920-3 0  9996
2 29507  97.5510 158.8971 0034607 109.5383 250.9592 15.17333156 66931
CZ-2C R/B               
1 31114U 07010B   26114.30718675  .00000086  00000+0  58301-4 0  9993
2 31114  98.4034 225.3109 0059483 160.5653 199.7812 14.20261793986192
COSMO-SKYMED 1          
1 31598U 07023A   26114.25951612  .00002027  00000+0  18217-3 0  9995
2 31598  97.8870 305.6669 0001224 101.1920 258.9439 14.96828429 21720
COSMOS 2428             
1 31792U 07029A   26114.12668021 -.00000197  00000+0 -80045-4 0  9999
2 31792  70.9391 107.9729 0009164 227.0906 132.9447 14.12945755970519
SL-16 R/B               
1 31793U 07029B   26114.32666178  .00000294  00000+0  17716-3 0  9993
2 31793  70.9743  76.4490 0002536 268.3316 253.8818 14.14843884971827
KORONAS-FOTON           
1 33504U 09003A   26114.26168427  .00010608  00000+0  22753-3 0  9993
2 33504  82.4308 228.4542 0009884 357.3904   2.7290 15.44519099952776
CZ-2C R/B               
1 37731U 11030B   26113.62110615  .00000657  00000+0  89100-4 0  9990
2 37731  97.8614  70.0127 0051751 202.6467 331.1724 14.81350183796749
H-2A R/B                
1 38341U 12025E   26113.62935797  .00001109  00000+0  10462-3 0  9996
2 38341  98.4797  84.3060 0044423 164.0074 196.2559 14.95429254754935
SHIJIAN-16 (SJ-16)      
1 39358U 13057A   26114.28011858  .00000351  00000+0  37048-4 0  9995
2 39358  74.9710  98.7702 0016116 355.9221   4.1833 14.92469657678309
SL-4 R/B                
1 39679U 14021B   26114.18376126  .00009783  00000+0  21207-3 0  9991
2 39679  51.6058 115.0721 0092766 269.4673  89.5681 15.40638270663283
ALOS-2                  
1 39766U 14029A   26113.76237126  .00000425  00000+0  63814-4 0  9990
2 39766  97.9197 211.7047 0001804  88.1130 272.0288 14.79468543643532
YAOGAN-29               
1 41038U 15069A   26114.26996299 -.00000264  00000+0 -25862-4 0  9993
2 41038  98.0079 142.8086 0001641 142.7983 217.3345 14.83038100562631
ASTRO-H (HITOMI)        
1 41337U 16012A   26114.17454306  .00002467  00000+0  14134-3 0  9996
2 41337  30.9994  62.9538 0009395  69.1754 290.9890 15.10263809559118
