[{"OBJECT_NAME":"ALOS (DAICHI)","OBJECT_ID":"2006-002A","EPOCH":"2026-04-23T15:15:31.459392","MEAN_MOTION":14.69932587,"ECCENTRICITY":0.00018931,"INCLINATION":98.1284,"RA_OF_ASC_NODE":69.3917,"ARG_OF_PERICENTER":106.3471,"MEAN_ANOMALY":253.7943,"EPHEMERIS_TYPE":0,"CLASSIFICATION_TYPE":"U","NORAD_CAT_ID":28931,"ELEMENT_SET_NO":999,"REV_AT_EPOCH":8008,"BSTAR":0.00014038541,"MEAN_MOTION_DOT":7.91e-6,"MEAN_MOTION_DDOT":0},{"OBJECT_NAME":"H-2A R/B","OBJECT_ID":"2006-002B","EPOCH":"2026-04-23T23:49:14.757888","MEAN_MOTION":15.17349909,"ECCENTRICITY":0.00525517,"INCLINATION":98.2499,"RA_OF_ASC_NODE":264.971,"ARG_OF_PERICENTER":87.8455,"MEAN_ANOMALY":272.8793,"EPHEMERIS_TYPE":0,"CLASSIFICATION_TYPE":"U","NORAD_CAT_ID":28932,"ELEMENT_SET_NO":999,"REV_AT_EPOCH":10130,"BSTAR":0.00028277875,"MEAN_MOTION_DOT":5.766e-5,"MEAN_MOTION_DDOT":0},{"OBJECT_NAME":"RESURS-DK 1","OBJECT_ID":"2006-021A","EPOCH":"2026-04-24T03:45:56.921184","MEAN_MOTION":15.12977179,"ECCENTRICITY":0.00031238,"INCLINATION":69.9297,"RA_OF_ASC_NODE":119.3901,"ARG_OF_PERICENTER":343.6065,"MEAN_ANOMALY":16.5,"EPHEMERIS_TYPE":0,"CLASSIFICATION_TYPE":"U","NORAD_CAT_ID":29228,"ELEMENT_SET_NO":999,"REV_AT_EPOCH":9440,"BSTAR":0.00010854093,"MEAN_MOTION_DOT":1.812e-5,"MEAN_MOTION_DDOT":0},{"OBJECT_NAME":"CZ-4B R/B","OBJECT_ID":"2006-046C","EPOCH":"2026-04-24T02:50:56.131008","MEAN_MOTION":15.17333156,"ECCENTRICITY":0.00346071,"INCLINATION":97.551,"RA_OF_ASC_NODE":158.8971,"ARG_OF_PERICENTER":109.5383,"MEAN_ANOMALY":250.9592,"EPHEMERIS_TYPE":0,"CLASSIFICATION_TYPE":"U","NORAD_CAT_ID":29507,"ELEMENT_SET_NO":999,"REV_AT_EPOCH":6693,"BSTAR":0.00016920464,"MEAN_MOTION_DOT":3.356e-5,"MEAN_MOTION_DDOT":0},{"OBJECT_NAME":"CZ-2C R/B","OBJECT_ID":"2007-010B","EPOCH":"2026-04-24T07:22:20.935200","MEAN_MOTION":14.20261793,"ECCENTRICITY":0.00594832,"INCLINATION":98.4034,"RA_OF_ASC_NODE":225.3109,"ARG_OF_PERICENTER":160.5653,"MEAN_ANOMALY":199.7812,"EPHEMERIS_TYPE":0,"CLASSIFICATION_TYPE":"U","NORAD_CAT_ID":31114,"ELEMENT_SET_NO":999,"REV_AT_EPOCH":98619,"BSTAR":5.8300824e-5,"MEAN_MOTION_DOT":8.6e-7,"MEAN_MOTION_DDOT":0},{"OBJECT_NAME":"COSMO-SKYMED 1","OBJECT_ID":"2007-023A","EPOCH":"2026-04-24T06:13:42.192768","MEAN_MOTION":14.96828429,"ECCENTRICITY":0.00012247,"INCLINATION":97.887,"RA_OF_ASC_NODE":305.6669,"ARG_OF_PERICENTER":101.192,"MEAN_ANOMALY":258.9439,"EPHEMERIS_TYPE":0,"CLASSIFICATION_TYPE":"U","NORAD_CAT_ID":31598,"ELEMENT_SET_NO":999,"REV_AT_EPOCH":2172,"BSTAR":0.00018216665,"MEAN_MOTION_DOT":2.027e-5,"MEAN_MOTION_DDOT":0},{"OBJECT_NAME":"COSMOS 2428","OBJECT_ID":"2007-029A","EPOCH":"2026-04-24T03:02:25.170144","MEAN_MOTION":14.12945755,"ECCENTRICITY":0.00091642,"INCLINATION":70.9391,"RA_OF_ASC_NODE":107.9729,"ARG_OF_PERICENTER":227.0906,"MEAN_ANOMALY":132.9447,"EPHEMERIS_TYPE":0,"CLASSIFICATION_TYPE":"U","NORAD_CAT_ID":31792,"ELEMENT_SET_NO":999,"REV_AT_EPOCH":97051,"BSTAR":-8.0045498e-5,"MEAN_MOTION_DOT":-1.97e-6,"MEAN_MOTION_DDOT":0},{"OBJECT_NAME":"SL-16 R/B","OBJECT_ID":"2007-029B","EPOCH":"2026-04-24T07:50:23.577792","MEAN_MOTION":14.14843884,"ECCENTRICITY":0.00025364,"INCLINATION":70.9743,"RA_OF_ASC_NODE":76.449,"ARG_OF_PERICENTER":268.3316,"MEAN_ANOMALY":253.8818,"EPHEMERIS_TYPE":0,"CLASSIFICATION_TYPE":"U","NORAD_CAT_ID":31793,"ELEMENT_SET_NO":999,"REV_AT_EPOCH":97182,"BSTAR":0.00017716439,"MEAN_MOTION_DOT":2.94e-6,"MEAN_MOTION_DDOT":0},{"OBJECT_NAME":"KORONAS-FOTON","OBJECT_ID":"2009-003A","EPOCH":"2026-04-24T06:16:49.520928","MEAN_MOTION":15.44519099,"ECCENTRICITY":0.00098847,"INCLINATION":82.4308,"RA_OF_ASC_NODE":228.4542,"ARG_OF_PERICENTER":357.3904,"MEAN_ANOMALY":2.729,"EPHEMERIS_TYPE":0,"CLASSIFICATION_TYPE":"U","NORAD_CAT_ID":33504,"ELEMENT_SET_NO":999,"REV_AT_EPOCH":95277,"BSTAR":0.00022753178,"MEAN_MOTION_DOT":0.00010608,"MEAN_MOTION_DDOT":0},{"OBJECT_NAME":"CZ-2C R/B","OBJECT_ID":"2011-030B","EPOCH":"2026-04-23T14:54:23.571360","MEAN_MOTION":14.81350183,"ECCENTRICITY":0.0051751,"INCLINATION":97.8614,"RA_OF_ASC_NODE":70.0127,"ARG_OF_PERICENTER":202.6467,"MEAN_ANOMALY":331.1724,"EPHEMERIS_TYPE":0,"CLASSIFICATION_TYPE":"U","NORAD_CAT_ID":37731,"ELEMENT_SET_NO":999,"REV_AT_EPOCH":79674,"BSTAR":8.9100337e-5,"MEAN_MOTION_DOT":6.57e-6,"MEAN_MOTION_DDOT":0},{"OBJECT_NAME":"H-2A R/B","OBJECT_ID":"2012-025E","EPOCH":"2026-04-23T15:06:16.528608","MEAN_MOTION":14.95429254,"ECCENTRICITY":0.00444236,"INCLINATION":98.4797,"RA_OF_ASC_NODE":84.306,"ARG_OF_PERICENTER":164.0074,"MEAN_ANOMALY":196.2559,"EPHEMERIS_TYPE":0,"CLASSIFICATION_TYPE":"U","NORAD_CAT_ID":38341,"ELEMENT_SET_NO":999,"REV_AT_EPOCH":75493,"BSTAR":0.00010462038,"MEAN_MOTION_DOT":1.109e-5,"MEAN_MOTION_DDOT":0},{"OBJECT_NAME":"SHIJIAN-16 (SJ-16)","OBJECT_ID":"2013-057A","EPOCH":"2026-04-24T06:43:22.245312","MEAN_MOTION":14.92469657,"ECCENTRICITY":0.00161161,"INCLINATION":74.971,"RA_OF_ASC_NODE":98.7702,"ARG_OF_PERICENTER":355.9221,"MEAN_ANOMALY":4.1833,"EPHEMERIS_TYPE":0,"CLASSIFICATION_TYPE":"U","NORAD_CAT_ID":39358,"ELEMENT_SET_NO":999,"REV_AT_EPOCH":67830,"BSTAR":3.7048154e-5,"MEAN_MOTION_DOT":3.51e-6,"MEAN_MOTION_DDOT":0},{"OBJECT_NAME":"SL-4 R/B","OBJECT_ID":"2014-021B","EPOCH":"2026-04-24T04:24:36.972864","MEAN_MOTION":15.4063827,"ECCENTRICITY":0.00927664,"INCLINATION":51.6058,"RA_OF_ASC_NODE":115.0721,"ARG_OF_PERICENTER":269.4673,"MEAN_ANOMALY":89.5681,"EPHEMERIS_TYPE":0,"CLASSIFICATION_TYPE":"U","NORAD_CAT_ID":39679,"ELEMENT_SET_NO":999,"REV_AT_EPOCH":66328,"BSTAR":0.00021206809,"MEAN_MOTION_DOT":9.783e-5,"MEAN_MOTION_DDOT":0},{"OBJECT_NAME":"ALOS-2","OBJECT_ID":"2014-029A","EPOCH":"2026-04-23T18:17:48.876864","MEAN_MOTION":14.79468543,"ECCENTRICITY":0.00018042,"INCLINATION":97.9197,"RA_OF_ASC_NODE":211.7047,"ARG_OF_PERICENTER":88.113,"MEAN_ANOMALY":272.0288,"EPHEMERIS_TYPE":0,"CLASSIFICATION_TYPE":"U","NORAD_CAT_ID":39766,"ELEMENT_SET_NO":999,"REV_AT_EPOCH":64353,"BSTAR":6.3814196e-5,"MEAN_MOTION_DOT":4.25e-6,"MEAN_MOTION_DDOT":0},{"OBJECT_NAME":"YAOGAN-29","OBJECT_ID":"2015-069A","EPOCH":"2026-04-24T06:28:44.802336","MEAN_MOTION":14.830381,"ECCENTRICITY":0.00016419,"INCLINATION":98.0079,"RA_OF_ASC_NODE":142.8086,"ARG_OF_PERICENTER":142.7983,"MEAN_ANOMALY":217.3345,"EPHEMERIS_TYPE":0,"CLASSIFICATION_TYPE":"U","NORAD_CAT_ID":41038,"ELEMENT_SET_NO":999,"REV_AT_EPOCH":56263,"BSTAR":-2.5861625e-5,"MEAN_MOTION_DOT":-2.64e-6,"MEAN_MOTION_DDOT":0},{"OBJECT_NAME":"ASTRO-H (HITOMI)","OBJECT_ID":"2016-012A","EPOCH":"2026-04-24T04:11:20.520384","MEAN_MOTION":15.10263809,"ECCENTRICITY":0.00093951,"INCLINATION":30.9994,"RA_OF_ASC_NODE":62.9538,"ARG_OF_PERICENTER":69.1754,"MEAN_ANOMALY":290.989,"EPHEMERIS_TYPE":0,"CLASSIFICATION_TYPE":"U","NORAD_CAT_ID":41337,"ELEMENT_SET_NO":999,"REV_AT_EPOCH":55911,"BSTAR":0.00014133706,"MEAN_MOTION_DOT":2.467e-5,"MEAN_MOTION_DDOT":0}]
